[{"OBJECT_NAME":"STARLINK-31122","OBJECT_ID":"2024-011K","EPOCH":"2026-03-09T06:24:36.512928","MEAN_MOTION":15.30193529,"ECCENTRICITY":0.00010974,"INCLINATION":53.1617,"RA_OF_ASC_NODE":15.7701,"ARG_OF_PERICENTER":114.9832,"MEAN_ANOMALY":245.1283,"EPHEMERIS_TYPE":0,"CLASSIFICATION_TYPE":"U","NORAD_CAT_ID":58774,"ELEMENT_SET_NO":999,"REV_AT_EPOCH":12020,"BSTAR":2.7376629e-5,"MEAN_MOTION_DOT":4.52e-6,"MEAN_MOTION_DDOT":0},{"OBJECT_NAME":"ARCSTONE","OBJECT_ID":"2025-135N","EPOCH":"2026-03-09T21:21:29.017152","MEAN_MOTION":15.28638458,"ECCENTRICITY":0.00041199,"INCLINATION":97.4495,"RA_OF_ASC_NODE":185.9194,"ARG_OF_PERICENTER":166.7863,"MEAN_ANOMALY":193.3485,"EPHEMERIS_TYPE":0,"CLASSIFICATION_TYPE":"U","NORAD_CAT_ID":64540,"ELEMENT_SET_NO":999,"REV_AT_EPOCH":3984,"BSTAR":0.00094899777,"MEAN_MOTION_DOT":0.00026427,"MEAN_MOTION_DDOT":0}]
